{
  "type": "FeatureCollection",
  "features": [
    {
      "type": "Feature",
      "properties": {
        "norad_id": 66631,
        "name": "STARLINK-35965",
        "group": "last-30-days",
        "lat": -16.462489961555406,
        "lon": 130.4226278237595,
        "alt_km": 432.4579768259382,
        "timestamp": "2025-12-21T22:41:40.163660+00:00",
        "meta_object_name": "STARLINK-35965",
        "meta_object_id": "2025-271Q",
        "meta_epoch": "2025-12-21T14:00:01.999872",
        "meta_mean_motion": 15.45538839,
        "meta_eccentricity": 0.00012592,
        "meta_inclination": 53.1605,
        "meta_ra_of_asc_node": 144.9448,
        "meta_arg_of_pericenter": 63.1036,
        "meta_mean_anomaly": 59.594,
        "meta_ephemeris_type": 0,
        "meta_classification_type": "U",
        "meta_norad_cat_id": 66631,
        "meta_element_set_no": 999,
        "meta_rev_at_epoch": 566,
        "meta_bstar": 0.00025151134,
        "meta_mean_motion_dot": 0.00011862,
        "meta_mean_motion_ddot": 0,
        "tle_line1": "1 66631U 25271Q   25355.58335648  .00011862  00000+0  25151-3 0  9995",
        "tle_line2": "2 66631  53.1605 144.9448 0001259  63.1036  59.5940 15.45538839  5664"
      },
      "geometry": {
        "type": "Point",
        "coordinates": [
          130.4226278237595,
          -16.462489961555406
        ]
      }
    },
    {
      "type": "Feature",
      "properties": {
        "norad_id": 66632,
        "name": "STARLINK-35973",
        "group": "last-30-days",
        "lat": 41.661644196774304,
        "lon": -78.19228904840865,
        "alt_km": 441.06027775407165,
        "timestamp": "2025-12-21T22:41:40.163671+00:00",
        "meta_object_name": "STARLINK-35973",
        "meta_object_id": "2025-271R",
        "meta_epoch": "2025-12-20T19:40:30.284544",
        "meta_mean_motion": 15.39631225,
        "meta_eccentricity": 0.00012232,
        "meta_inclination": 53.1603,
        "meta_ra_of_asc_node": 148.9553,
        "meta_arg_of_pericenter": 63.442,
        "meta_mean_anomaly": 296.671,
        "meta_ephemeris_type": 0,
        "meta_classification_type": "U",
        "meta_norad_cat_id": 66632,
        "meta_element_set_no": 999,
        "meta_rev_at_epoch": 541,
        "meta_bstar": 0.00073080685,
        "meta_mean_motion_dot": 0.00028954,
        "meta_mean_motion_ddot": 0,
        "tle_line1": "1 66632U 25271R   25354.81979496  .00028954  00000+0  73081-3 0  9991",
        "tle_line2": "2 66632  53.1603 148.9553 0001223  63.4420 296.6710 15.39631225  5413"
      },
      "geometry": {
        "type": "Point",
        "coordinates": [
          -78.19228904840865,
          41.661644196774304
        ]
      }
    },
    {
      "type": "Feature",
      "properties": {
        "norad_id": 66633,
        "name": "STARLINK-35948",
        "group": "last-30-days",
        "lat": 40.62902098684776,
        "lon": -76.38540913696251,
        "alt_km": 441.1490191840703,
        "timestamp": "2025-12-21T22:41:40.163682+00:00",
        "meta_object_name": "STARLINK-35948",
        "meta_object_id": "2025-271S",
        "meta_epoch": "2025-12-21T14:21:45.025056",
        "meta_mean_motion": 15.39650577,
        "meta_eccentricity": 0.00011437,
        "meta_inclination": 53.1614,
        "meta_ra_of_asc_node": 145.2826,
        "meta_arg_of_pericenter": 83.2943,
        "meta_mean_anomaly": 276.8192,
        "meta_ephemeris_type": 0,
        "meta_classification_type": "U",
        "meta_norad_cat_id": 66633,
        "meta_element_set_no": 999,
        "meta_rev_at_epoch": 557,
        "meta_bstar": 0.00091576268,
        "meta_mean_motion_dot": 0.00036442,
        "meta_mean_motion_ddot": 0,
        "tle_line1": "1 66633U 25271S   25355.59843779  .00036442  00000+0  91576-3 0  9992",
        "tle_line2": "2 66633  53.1614 145.2826 0001143  83.2943 276.8192 15.39650577  5572"
      },
      "geometry": {
        "type": "Point",
        "coordinates": [
          -76.38540913696251,
          40.62902098684776
        ]
      }
    },
    {
      "type": "Feature",
      "properties": {
        "norad_id": 66634,
        "name": "STARLINK-35967",
        "group": "last-30-days",
        "lat": 22.58628664091613,
        "lon": -54.57835138120941,
        "alt_km": 444.47475520209264,
        "timestamp": "2025-12-21T22:41:40.163692+00:00",
        "meta_object_name": "STARLINK-35967",
        "meta_object_id": "2025-271T",
        "meta_epoch": "2025-12-21T14:15:03.703104",
        "meta_mean_motion": 15.39646148,
        "meta_eccentricity": 9.018e-05,
        "meta_inclination": 53.1601,
        "meta_ra_of_asc_node": 145.2516,
        "meta_arg_of_pericenter": 75.1787,
        "meta_mean_anomaly": 284.9318,
        "meta_ephemeris_type": 0,
        "meta_classification_type": "U",
        "meta_norad_cat_id": 66634,
        "meta_element_set_no": 999,
        "meta_rev_at_epoch": 553,
        "meta_bstar": 0.00093086163,
        "meta_mean_motion_dot": 0.00037047,
        "meta_mean_motion_ddot": 0,
        "tle_line1": "1 66634U 25271T   25355.59379286  .00037047  00000+0  93086-3 0  9990",
        "tle_line2": "2 66634  53.1601 145.2516 0000901  75.1787 284.9318 15.39646148  5537"
      },
      "geometry": {
        "type": "Point",
        "coordinates": [
          -54.57835138120941,
          22.58628664091613
        ]
      }
    },
    {
      "type": "Feature",
      "properties": {
        "norad_id": 66635,
        "name": "STARLINK-35955",
        "group": "last-30-days",
        "lat": -18.09943111937454,
        "lon": -22.323964735176176,
        "alt_km": 450.1308380134251,
        "timestamp": "2025-12-21T22:41:40.163702+00:00",
        "meta_object_name": "STARLINK-35955",
        "meta_object_id": "2025-271U",
        "meta_epoch": "2025-12-21T14:01:41.304576",
        "meta_mean_motion": 15.39650521,
        "meta_eccentricity": 0.0001145,
        "meta_inclination": 53.1608,
        "meta_ra_of_asc_node": 145.1945,
        "meta_arg_of_pericenter": 98.0111,
        "meta_mean_anomaly": 262.1024,
        "meta_ephemeris_type": 0,
        "meta_classification_type": "U",
        "meta_norad_cat_id": 66635,
        "meta_element_set_no": 999,
        "meta_rev_at_epoch": 557,
        "meta_bstar": 0.0012773677,
        "meta_mean_motion_dot": 0.00051088,
        "meta_mean_motion_ddot": 0,
        "tle_line1": "1 66635U 25271U   25355.58450584  .00051088  00000+0  12774-2 0  9996",
        "tle_line2": "2 66635  53.1608 145.1945 0001145  98.0111 262.1024 15.39650521  5572"
      },
      "geometry": {
        "type": "Point",
        "coordinates": [
          -22.323964735176176,
          -18.09943111937454
        ]
      }
    },
    {
      "type": "Feature",
      "properties": {
        "norad_id": 66636,
        "name": "STARLINK-35968",
        "group": "last-30-days",
        "lat": 2.3091958467103004,
        "lon": -38.19248360776086,
        "alt_km": 447.81376769800136,
        "timestamp": "2025-12-21T22:41:40.163717+00:00",
        "meta_object_name": "STARLINK-35968",
        "meta_object_id": "2025-271V",
        "meta_epoch": "2025-12-21T03:14:02.393088",
        "meta_mean_motion": 15.39628525,
        "meta_eccentricity": 9.786e-05,
        "meta_inclination": 53.1622,
        "meta_ra_of_asc_node": 147.3616,
        "meta_arg_of_pericenter": 71.64,
        "meta_mean_anomaly": 288.4711,
        "meta_ephemeris_type": 0,
        "meta_classification_type": "U",
        "meta_norad_cat_id": 66636,
        "meta_element_set_no": 999,
        "meta_rev_at_epoch": 550,
        "meta_bstar": 0.00071528758,
        "meta_mean_motion_dot": 0.00028325,
        "meta_mean_motion_ddot": 0,
        "tle_line1": "1 66636U 25271V   25355.13474992  .00028325  00000+0  71529-3 0  9999",
        "tle_line2": "2 66636  53.1622 147.3616 0000978  71.6400 288.4711 15.39628525  5505"
      },
      "geometry": {
        "type": "Point",
        "coordinates": [
          -38.19248360776086,
          2.3091958467103004
        ]
      }
    },
    {
      "type": "Feature",
      "properties": {
        "norad_id": 66637,
        "name": "STARLINK-35953",
        "group": "last-30-days",
        "lat": -36.80682818357466,
        "lon": -2.433776386284051,
        "alt_km": 451.96776133782714,
        "timestamp": "2025-12-21T22:41:40.163727+00:00",
        "meta_object_name": "STARLINK-35953",
        "meta_object_id": "2025-271W",
        "meta_epoch": "2025-12-21T14:00:01.999872",
        "meta_mean_motion": 15.39614843,
        "meta_eccentricity": 9.93e-05,
        "meta_inclination": 53.1595,
        "meta_ra_of_asc_node": 145.148,
        "meta_arg_of_pericenter": 91.5908,
        "meta_mean_anomaly": 287.8892,
        "meta_ephemeris_type": 0,
        "meta_classification_type": "U",
        "meta_norad_cat_id": 66637,
        "meta_element_set_no": 999,
        "meta_rev_at_epoch": 566,
        "meta_bstar": -7.2185465e-05,
        "meta_mean_motion_dot": -3.285e-05,
        "meta_mean_motion_ddot": 0,
        "tle_line1": "1 66637U 25271W   25355.58335648 -.00003285  00000+0 -72185-4 0  9993",
        "tle_line2": "2 66637  53.1595 145.1480 0000993  91.5908 287.8892 15.39614843  5669"
      },
      "geometry": {
        "type": "Point",
        "coordinates": [
          -2.433776386284051,
          -36.80682818357466
        ]
      }
    }
  ]
}